E-ST@R-II               
1 41459U 16025D   22096.71889747  .00026490  00000+0  11812-2 0  9992
2 41459  98.1777 256.6809 0151102 152.6200 208.3081 15.11631019326658
AAUSAT 4                
1 41460U 16025E   22096.89550504  .00037753  00000+0  15319-2 0  9999
2 41460  98.1730 262.4665 0133373 130.5327 230.7594 15.16622809327087
BEESAT-4                
1 41619U 16040W   22096.11004157  .00016671  00000+0  59497-3 0  9997
2 41619  97.2259 148.7492 0009910  24.4836 335.6873 15.28893080309661
CANX-7                  
1 41788U 16059F   22096.79977449  .00815901  00000+0  24053-1 0  9992
2 41788  98.2092 222.3328 0024137 283.2281 239.1547 15.32312751297723
RAVAN                   
1 41849U 16067B   22096.82254679  .00005234  00000+0  42361-3 0  9990
2 41849  97.9918 231.7968 0014356 208.7057 151.3377 15.00129181295253
CELTEE 1                
1 41850U 16067C   22096.31974729  .00003786  00000+0  32499-3 0  9992
2 41850  97.9869 226.6151 0007523 206.4736 153.6103 14.98083806294951
OPTICUBE 04             
1 41851U 16067D   22096.33727824  .00001777  00000+0  15758-3 0  9994
2 41851  97.9834 225.7739 0008053 216.4251 143.6423 14.97523402294918
AEROCUBE 8D             
1 41852U 16067E   22096.30324371  .00004605  00000+0  39582-3 0  9996
2 41852  97.9828 225.6921 0008764 210.0837 149.9882 14.97915886294899
AEROCUBE 8C             
1 41853U 16067F   22096.34964667  .00003845  00000+0  33166-3 0  9996
2 41853  97.9812 225.5735 0009551 217.4373 142.6184 14.97880446294894
PROMETHEUS 2-1          
1 41854U 16067G   22096.30126625  .00006537  00000+0  54720-3 0  9997
2 41854  97.9825 226.4605 0009680 208.1547 151.9152 14.98767651294934
PROMETHEUS 2-3          
1 41855U 16067H   22096.36174763  .00006271  00000+0  52485-3 0  9991
2 41855  97.9823 226.5959 0010260 211.3390 148.7221 14.98788286294943
INS-1B                  
1 41954U 17008G   22096.12931885  .00016622  00000+0  58420-3 0  9993
2 41954  97.2654 157.5862 0009545 129.8983 230.3098 15.29399117285686
BGUSAT                  
1 41999U 17008BD  22096.47556782  .00035578  00000+0  10054-2 0  9990
2 41999  97.2873 167.3518 0007666 127.1381 233.0564 15.36232865285570
DIDO-2                  
1 42000U 17008BE  22096.71617137  .00010210  00000+0  38276-3 0  9996
2 42000  97.2643 157.8440 0008834 145.6081 214.5732 15.27400368285113
PEASSS                  
1 42015U 17008BV  22096.42626930  .00014193  00000+0  49390-3 0  9994
2 42015  97.2702 161.0136 0006845 141.8823 218.2903 15.29780550285753
AL-FARABI 1             
1 42016U 17008BW  22096.69664935  .00019211  00000+0  62363-3 0  9992
2 42016  97.2764 163.9494 0006615 139.0868 221.0872 15.31967662286058
NAYIF-1 (EO-88)         
1 42017U 17008BX  22096.84770634  .00019386  00000+0  62731-3 0  9996
2 42017  97.2756 164.1055 0006556 137.0303 223.1452 15.32069267286100
UCLSAT                  
1 42765U 17036A   22096.65461368  .00014425  00000+0  53239-3 0  9999
2 42765  97.2071 141.6258 0009295 209.5002 150.5714 15.27826470266292
LITUANICASAT-2          
1 42768U 17036D   22096.37132071  .00027964  00000+0  91263-3 0  9998
2 42768  97.2156 143.4447 0011947 196.9646 163.1198 15.31670971266204
AALTO-1                 
1 42775U 17036L   22096.39067877  .00009038  00000+0  36987-3 0  9993
2 42775  97.2071 136.8496 0012030 214.2473 145.7990 15.24475579265792
URSA MAIOR              
1 42776U 17036M   22096.65760148  .00009916  00000+0  40016-3 0  9997
2 42776  97.2083 137.7691 0011852 211.8372 148.2151 15.24922459265864
COMPASS 2               
1 42777U 17036N   22096.67300823  .00021089  00000+0  73179-3 0  9991
2 42777  97.2142 143.3892 0010417 197.6584 162.4296 15.29758477266163
DIAMOND RED             
1 42783U 17036U   22096.55560884  .00010581  00000+0  41257-3 0  9997
2 42783  97.2090 139.8597 0010037 217.2852 142.7691 15.26073100265977
PEGASUS                 
1 42784U 17036V   22096.67011941  .00013710  00000+0  51691-3 0  9996
2 42784  97.2085 140.9780 0009932 213.5313 146.5299 15.27126193266050
DIAMOND GREEN           
1 42785U 17036W   22096.55459120  .00010994  00000+0  42855-3 0  9992
2 42785  97.2090 139.9198 0009932 217.5729 142.4817 15.26072481266042
DIAMOND BLUE            
1 42786U 17036X   22096.55342537  .00010675  00000+0  41607-3 0  9996
2 42786  97.2091 139.9112 0009917 217.8930 142.1612 15.26083858266040
NUDTSAT                 
1 42787U 17036Y   22096.59124016  .00023886  00000+0  80554-3 0  9993
2 42787  97.2120 144.5204 0009364 200.6522 159.4328 15.30669875266095
SUCHAI                  
1 42788U 17036Z   22096.34687566  .00015773  00000+0  57042-3 0  9993
2 42788  97.2093 142.1211 0009479 209.2260 150.8451 15.28475303266166
SKCUBE                  
1 42789U 17036AA  22096.57510550  .00013979  00000+0  51413-3 0  9999
2 42789  97.2091 141.8808 0009454 209.2002 150.8711 15.27946488266097
VZLUSAT-1               
1 42790U 17036AB  22096.39774610  .00020931  00000+0  70837-3 0  9997
2 42790  97.2119 144.3115 0008906 201.2500 158.8373 15.30586471266217
ROBUSTA-1B              
1 42792U 17036AD  22096.68347020  .00015788  00000+0  57282-3 0  9995
2 42792  97.2088 142.5000 0009052 208.6512 151.4232 15.28372322266155
CICERO 6                
1 42793U 17036AE  22096.57404375  .00009498  00000+0  37062-3 0  9996
2 42793  97.2071 140.4512 0008485 215.1669 144.9011 15.26089919266100
CORVUS BC2              
1 42846U 17042X   22096.55916703  .00001922  00000+0  19143-3 0  9997
2 42846  97.4332 317.9044 0008198 232.1313 127.9166 14.92673346257554
CORVUS BC1              
1 42847U 17042Y   22096.57778583  .00001788  00000+0  17796-3 0  9994
2 42847  97.4334 318.2146 0007789 230.3242 129.7292 14.92777213257569
MIRATA                  
1 43015U 17073C   22096.45357425  .00012142  00000+0  88859-3 0  9995
2 43015  97.6808 354.4570 0244051  57.8828 304.5821 14.82829438236592
MAKERSAT 0              
1 43016U 17073D   22096.68000402  .00007949  00000+0  59234-3 0  9995
2 43016  97.6836 354.4008 0249984  60.8087 301.7885 14.81450518236554
AEROCUBE 7B (OCSD B)    
1 43042U 17071F   22096.86084941  .00088041  00000+0  92506-3 0  9993
2 43042  51.6348  49.1687 0001823  77.0823 283.0375 15.63584500244430
AEROCUBE 7C (OCSD C)    
1 43043U 17071G   22096.57311668  .00090711  00000+0  98768-3 0  9994
2 43043  51.6337  51.7168 0001845  65.7191 294.3996 15.62660575244348
ASGARDIA 1              
1 43049U 17071N   22096.36290299  .00076254  00000+0  89067-3 0  9991
2 43049  51.6352  53.4985 0002680  85.7911 274.3389 15.60918164244305
PROPCUBE 2 (FAUNA)      
1 43052U 17071R   22096.29120836  .00096466  00000+0  98488-3 0  9990
2 43052  51.6322  46.9694 0002973 100.3199 259.8131 15.64271671244376
CORVUS BC3              
1 43118U 18004H   22096.20983608  .00009293  00000+0  36222-3 0  9995
2 43118  97.3670 169.8919 0008050 254.4798 105.5552 15.26144681235197
MICROMAS-2A             
1 43131U 18004W   22096.49025799  .00029648  00000+0  94338-3 0  9997
2 43131  97.3785 175.7822 0006716 235.4916 124.5692 15.32522954235541
SPACEBEE-4              
1 43139U 18004AE  22096.48869972  .00046796  00000+0  12572-2 0  9995
2 43139  97.3879 179.8622 0006146 228.1656 131.9065 15.37755481235761
SPACEBEE-3              
1 43140U 18004AF  22096.19814149  .00067730  00000+0  15300-2 0  9994
2 43140  97.3922 182.4402 0005959 223.4992 136.5786 15.42934632235887
SPACEBEE-2              
1 43141U 18004AG  22096.20956033  .00081915  00000+0  17213-2 0  9992
2 43141  97.3946 183.5628 0005625 221.4263 138.6559 15.45024392235949
SPACEBEE-1              
1 43142U 18004AH  22096.46860126  .00104336  00000+0  19871-2 0  9993
2 43142  97.3961 185.0139 0005846 220.1901 139.8917 15.47804610236045
CICERO 7                
1 43143U 18004AJ  22096.44006392  .00020176  00000+0  67069-3 0  9991
2 43143  97.3765 175.5137 0004897 247.4238 112.6485 15.31203843235547
GOMX-4B                 
1 43196U 18015E   22096.37859883  .00005326  00000+0  20894-3 0  9999
2 43196  97.5217 235.1938 0016634 313.6751  46.3107 15.26058352232165
GOMX-4A                 
1 43197U 18015F   22096.83002326  .00011103  00000+0  41402-3 0  9991
2 43197  97.5203 236.2704 0016240 311.4007 152.5120 15.27480293232289
AEROCUBE 12A            
1 43556U 18046C   22096.49958637  .00022099  00000+0  62397-3 0  9993
2 43556  51.6367 173.8598 0005994 129.6227 230.5286 15.36275167208245
AEROCUBE 12B            
1 43557U 18046D   22096.68713677  .00019302  00000+0  56924-3 0  9990
2 43557  51.6377 176.5498 0006432 129.3528 230.8026 15.34995001208176
SURFSAT                 
1 43614U 18070B   22096.51128503  .00040722  00000+0  73684-3 0  9993
2 43614  93.0267  68.3360 0007927 313.5585  46.5015 15.49503776199904
CP7 (DAVE)              
1 43615U 18070C   22096.86410560  .00036747  00000+0  68095-3 0  9991
2 43615  93.0268  68.3798 0008305 312.3511  47.7045 15.48833460199932
ELFIN-B                 
1 43616U 18070D   22096.42410608  .00064992  00000+0  91209-3 0  9993
2 43616  93.0185  69.0023 0006035 304.1365  55.9326 15.56500654200115
ELFIN-A                 
1 43617U 18070E   22096.44051189  .00068244  00000+0  91725-3 0  9998
2 43617  93.0261  70.2090 0004822 295.5499  64.5266 15.57662490200153
CUBEBEL-1 (BSUSAT-1)    
1 43666U 18083E   22096.82510855  .00013711  00000+0  60598-3 0  9991
2 43666  97.4280 126.3678 0012711 218.3385 246.4495 15.21756323190584
CICERO 10               
1 43690U 18088A   22096.74254214  .00013222  00000+0  54970-3 0  9992
2 43690  85.0408   3.8943 0016026  58.2529 302.0273 15.23547043188819
IRVINE01                
1 43693U 18088D   22096.44190836  .00039727  00000+0  12488-2 0  9996
2 43693  85.0348 359.4757 0015021  30.9230 329.2899 15.32698399189174
PROXIMA I               
1 43694U 18088E   22096.44927873  .00011277  00000+0  44590-3 0  9996
2 43694  85.0347   0.9603 0018775  27.9524 332.2724 15.25172943188997
